[{"OBJECT_NAME":"JY1SAT (JO-97)","OBJECT_ID":"2018-099AX","EPOCH":"2026-03-09T16:28:19.890048","MEAN_MOTION":15.30302629,"ECCENTRICITY":0.00047232,"INCLINATION":97.4249,"RA_OF_ASC_NODE":131.3625,"ARG_OF_PERICENTER":256.6795,"MEAN_ANOMALY":103.3919,"EPHEMERIS_TYPE":0,"CLASSIFICATION_TYPE":"U","NORAD_CAT_ID":43803,"ELEMENT_SET_NO":999,"REV_AT_EPOCH":39839,"BSTAR":0.00060804308,"MEAN_MOTION_DOT":0.00017774,"MEAN_MOTION_DDOT":0},{"OBJECT_NAME":"STARLINK-31317","OBJECT_ID":"2024-027A","EPOCH":"2026-03-09T23:24:31.337280","MEAN_MOTION":15.30184171,"ECCENTRICITY":0.00013317,"INCLINATION":53.1625,"RA_OF_ASC_NODE":308.1808,"ARG_OF_PERICENTER":77.5088,"MEAN_ANOMALY":282.6062,"EPHEMERIS_TYPE":0,"CLASSIFICATION_TYPE":"U","NORAD_CAT_ID":58931,"ELEMENT_SET_NO":999,"REV_AT_EPOCH":11721,"BSTAR":3.388817e-5,"MEAN_MOTION_DOT":6.44e-6,"MEAN_MOTION_DDOT":0}]
